[{"OBJECT_NAME":"FLOCK 4H-11","OBJECT_ID":"2025-276BA","EPOCH":"2026-03-09T17:03:35.203104","MEAN_MOTION":15.19866616,"ECCENTRICITY":0.00029648,"INCLINATION":97.4275,"RA_OF_ASC_NODE":144.0652,"ARG_OF_PERICENTER":29.2184,"MEAN_ANOMALY":330.9216,"EPHEMERIS_TYPE":0,"CLASSIFICATION_TYPE":"U","NORAD_CAT_ID":66714,"ELEMENT_SET_NO":999,"REV_AT_EPOCH":1532,"BSTAR":0.0004210568,"MEAN_MOTION_DOT":8.971e-5,"MEAN_MOTION_DDOT":0},{"OBJECT_NAME":"DELTA 1 DEB","OBJECT_ID":"1977-065AM","EPOCH":"2026-03-09T22:03:01.031616","MEAN_MOTION":14.51643532,"ECCENTRICITY":0.03229519,"INCLINATION":28.9328,"RA_OF_ASC_NODE":276.015,"ARG_OF_PERICENTER":66.8309,"MEAN_ANOMALY":296.5959,"EPHEMERIS_TYPE":0,"CLASSIFICATION_TYPE":"U","NORAD_CAT_ID":10208,"ELEMENT_SET_NO":999,"REV_AT_EPOCH":43123,"BSTAR":0.0021583786,"MEAN_MOTION_DOT":0.00017761,"MEAN_MOTION_DDOT":0}]
